IRIDIUM 64 [+]          
1 25287U 98021C   16148.19714525  .00000146  00000-0  45170-4 0  9990
2 25287  86.3980  25.3184 0002301  82.7099 277.4358 14.34215136949675
IRIDIUM 65 [+]          
1 25288U 98021D   16148.20348663  .00000091  00000-0  25306-4 0  9997
2 25288  86.3979  25.2260 0002240  90.0519 270.0934 14.34217245949693
IRIDIUM 66 [+]          
1 25289U 98021E   16148.16148477  .00000096  00000-0  27336-4 0  9994
2 25289  86.3977  25.1506 0002163  87.5887  23.0684 14.34215511949688
IRIDIUM 67 [+]          
1 25290U 98021F   16148.56502170  .00000169  00000-0  53160-4 0  9999
2 25290  86.3977  25.1122 0002158  85.4430 274.7013 14.34215621949750
IRIDIUM 68 [+]          
1 25291U 98021G   16148.15275703  .00000165  00000-0  52016-4 0  9999
2 25291  86.3980  25.3962 0002079  87.0685 273.0748 14.34218986949665
IRIDIUM 69 [-]          
1 25319U 98026A   16148.22311640  .00000137  00000-0  38257-4 0  9994
2 25319  86.4015  48.0972 0004086  94.7487 265.4178 14.38591737947543
IRIDIUM 71 [-]          
1 25320U 98026B   16148.25468260  .00000074  00000-0  17354-4 0  9995
2 25320  86.3996  44.1602 0003100 127.8903 232.2576 14.39007981947960
IRIDIUM 70 [+]          
1 25342U 98032A   16148.20017186  .00000166  00000-0  52105-4 0  9993
2 25342  86.3984  25.5997 0002102  89.1789  24.7352 14.34215211943777
IRIDIUM 72 [+]          
1 25343U 98032B   16148.52439145  .00000160  00000-0  50128-4 0  9999
2 25343  86.3981  25.1013 0002186  87.3840 324.9420 14.34215297943821
IRIDIUM 73 [-]          
1 25344U 98032C   16148.52428858  .00000143  00000-0  32485-4 0  9996
2 25344  86.4429   5.9264 0001557  84.7412 275.3970 14.48938887951708
IRIDIUM 74 [S]          
1 25345U 98032D   16148.17495578  .00000184  00000-0  49114-4 0  9993
2 25345  86.4490  25.5839 0002395  84.0257  28.0972 14.42951689947084
IRIDIUM 75 [+]          
1 25346U 98032E   16148.19382296  .00000168  00000-0  52779-4 0  9991
2 25346  86.3981  25.4782 0002146  86.3286  27.5699 14.34219820944347
IRIDIUM 3 [+]           
1 25431U 98048A   16148.39207363  .00000216  00000-0  70061-4 0  9994
2 25431  86.3987  56.9945 0002195  88.4631  48.8618 14.34218292930310
IRIDIUM 76 [+]          
1 25432U 98048B   16148.26654627  .00000205  00000-0  66173-4 0  9997
2 25432  86.3983  56.8136 0002066  84.7596  26.6809 14.34218484930289
IRIDIUM 82 [+]          
1 25467U 98051A   16148.49330784  .00000137  00000-0  41792-4 0  9993
2 25467  86.3989 183.3724 0002653  92.6941 267.4558 14.34219360931333
IRIDIUM 81 [+]          
1 25468U 98051B   16148.55673838  .00000090  00000-0  25236-4 0  9994
2 25468  86.3978 182.9674 0002393  91.0288 269.1182 14.34219676927561
IRIDIUM 80 [+]          
1 25469U 98051C   16148.55913037  .00000021  00000-0  36954-6 0  9998
2 25469  86.3982 183.2348 0002319  88.2339  22.4125 14.34218982927568
IRIDIUM 77 [+]          
1 25471U 98051E   16148.49621270 -.00000019  00000-0 -13687-4 0  9994
2 25471  86.3977 182.8686 0002181  90.6682  22.6160 14.34218761932753
IRIDIUM 2 [-]           
1 25527U 98066A   16148.48658694  .00001527  00000-0  79194-4 0  9999
2 25527  85.5320 259.6476 0011800  72.5178 287.7350 15.15225218959440
IRIDIUM 86 [+]          
1 25528U 98066B   16148.50256063 -.00000021  00000-0 -14519-4 0  9997
2 25528  86.3951 151.0672 0002243  90.9834 269.1618 14.34217389924080
IRIDIUM 84 [+]          
1 25530U 98066D   16148.53427288 -.00000011  00000-0 -10902-4 0  9993
2 25530  86.3952 151.2121 0002275  83.6784 276.4670 14.34217427921723
IRIDIUM 83 [+]          
1 25531U 98066E   16148.49621744 -.00000009  00000-0 -10125-4 0  9996
2 25531  86.3956 151.3378 0002258  83.9733 276.1720 14.34217499919078
IRIDIUM 20 [+]          
1 25577U 98074A   16148.27669536  .00000224  00000-0  73050-4 0  9995
2 25577  86.3983  56.7361 0002230  85.8412 274.3039 14.34218381913127
IRIDIUM 11 [+]          
1 25578U 98074B   16148.31213534  .00000220  00000-0  71427-4 0  9996
2 25578  86.3982  56.9268 0002330  85.3313  32.2527 14.34218522922097
IRIDIUM 14 [S]          
1 25777U 99032A   16148.21299064  .00000121  00000-0  36168-4 0  9996
2 25777  86.3980  25.3063 0002158  89.9958  24.6021 14.34214765899353
IRIDIUM 21 [+]          
1 25778U 99032B   16148.15909557  .00000034  00000-0  51443-5 0  9992
2 25778  86.3981  25.3523 0002076  83.1612 276.9820 14.34215304892787
IRIDIUM 91 [+]          
1 27372U 02005A   16148.35936581  .00000184  00000-0  58458-4 0  9995
2 27372  86.3982  89.1043 0002529  82.4807  31.7237 14.34223151756323
IRIDIUM 90 [S]          
1 27373U 02005B   16148.48529236  .00000003  00000-0 -50584-5 0  9999
2 27373  86.4466 151.3117 0002170  87.9545 272.1904 14.42954436755739
IRIDIUM 94 [S]          
1 27374U 02005C   16148.26057747  .00000229  00000-0  74703-4 0  9996
2 27374  86.3984  57.0701 0001367  98.7109  14.6475 14.34218549760634
IRIDIUM 95 [+]          
1 27375U 02005D   16148.37526927  .00000190  00000-0  60867-4 0  9993
2 27375  86.3981  88.8800 0002173  85.4568 274.6876 14.34217662755612
IRIDIUM 96 [S]          
1 27376U 02005E   16148.42304774  .00000025  00000-0  17462-5 0  9995
2 27376  86.3981 120.3661 0001785  48.2195 311.9153 14.34214570760828
IRIDIUM 97 [+]          
1 27450U 02031A   16148.46110349  .00000025  00000-0  18583-5 0  9999
2 27450  86.3950 120.1679 0002459  83.7913 276.3563 14.34214845734943
IRIDIUM 98 [S]          
1 27451U 02031B   16148.54024744  .00000025  00000-0  19021-5 0  9990
2 27451  86.3973 183.4216 0002403  89.7055  21.7031 14.34219095736025
